GLOBALSTAR M001         
1 25162U 98008A   25166.92646068 -.00000068  00000+0  21629-3 0  9999
2 25162  52.0051 336.8937 0000842 217.1827 308.4407 12.38214431243556
GLOBALSTAR M004         
1 25163U 98008B   25166.88225757 -.00000094  00000+0  57372-4 0  9997
2 25163  52.0017  58.1321 0002644 299.9894  97.3965 12.63396732261527
GLOBALSTAR M002         
1 25164U 98008C   25166.87444546 -.00000047  00000+0  57578-3 0  9991
2 25164  52.0006 243.4972 0001846 152.1135 207.9785 11.61509688183916
GLOBALSTAR M003         
1 25165U 98008D   25166.95527814 -.00000146  00000+0 -60134-3 0  9994
2 25165  51.9959 171.9364 0008106 291.2570  87.3667 12.12074562233073
GLOBALSTAR M014         
1 25306U 98023A   25166.77747140 -.00000084  00000+0 -13204-3 0  9991
2 25306  51.9801 166.9926 0001148 342.8755 187.4952 11.65481225191001
GLOBALSTAR M006         
1 25307U 98023B   25166.86084209 -.00000070  00000+0  10949-3 0  9999
2 25307  51.9919 219.2064 0003142 109.0866  62.1315 11.58176247216679
GLOBALSTAR M015         
1 25308U 98023C   25166.85266979 -.00000031  00000+0  97348-3 0  9990
2 25308  51.9839 317.6357 0013121  75.1910  73.1219 11.48859587193921
GLOBALSTAR M008         
1 25309U 98023D   25166.88406589 -.00000095  00000+0  83792-5 0  9997
2 25309  51.9944 201.8335 0002799 174.7427 357.0119 12.36070493237681
